[{"OBJECT_NAME":"STARLINK-2388","OBJECT_ID":"2021-018W","EPOCH":"2026-03-09T16:57:08.803296","MEAN_MOTION":15.30196777,"ECCENTRICITY":0.0001071,"INCLINATION":53.1597,"RA_OF_ASC_NODE":216.6328,"ARG_OF_PERICENTER":96.2177,"MEAN_ANOMALY":263.8945,"EPHEMERIS_TYPE":0,"CLASSIFICATION_TYPE":"U","NORAD_CAT_ID":47807,"ELEMENT_SET_NO":999,"REV_AT_EPOCH":27708,"BSTAR":3.8947405e-5,"MEAN_MOTION_DOT":7.94e-6,"MEAN_MOTION_DDOT":0},{"OBJECT_NAME":"TEVEL2-2","OBJECT_ID":"2025-052K","EPOCH":"2026-03-09T15:33:48.895776","MEAN_MOTION":15.30343745,"ECCENTRICITY":0.0004693,"INCLINATION":97.3987,"RA_OF_ASC_NODE":324.77,"ARG_OF_PERICENTER":105.793,"MEAN_ANOMALY":254.3828,"EPHEMERIS_TYPE":0,"CLASSIFICATION_TYPE":"U","NORAD_CAT_ID":63219,"ELEMENT_SET_NO":999,"REV_AT_EPOCH":5485,"BSTAR":0.00069428,"MEAN_MOTION_DOT":0.00020339,"MEAN_MOTION_DDOT":0}]
